start=new Date('2023-01-25T00:00:00.000Z').valueOf();
sats=[{"FILE":"3759342","EPOCH":"2023-01-24T03:04:44.574816","SITE":"AFWTR","MEAN_ELEMENT_THEORY":"SGP4","PERIOD":"95.437","ARG_OF_PERICENTER":"115.4764","CENTER_NAME":"EARTH","MEAN_MOTION_DDOT":"0.0000000000000","OBJECT_TYPE":"PAYLOAD","ELEMENT_SET_NO":"999","EPHEMERIS_TYPE":"0","GP_ID":"223623747","INCLINATION":"53.2157","RA_OF_ASC_NODE":"284.5166","SEMIMAJOR_AXIS":"6917.873","NORAD_CAT_ID":"53997","MEAN_ANOMALY":"244.6401","LAUNCH_DATE":"2022-10-05","REV_AT_EPOCH":"1748","ECCENTRICITY":"0.00016680","MEAN_MOTION":"15.08842547","OBJECT_NAME":"STARLINK-5130","COUNTRY_CODE":"US","TLE_LINE1":"1 53997U 22125AK  23024.12829369  .00001705  00000-0  12519-3 0  9990","BSTAR":"0.00012519000000","REF_FRAME":"TEME","CLASSIFICATION_TYPE":"U","APOAPSIS":"540.892","PERIAPSIS":"538.584","OBJECT_ID":"2022-125AK","DECAY_DATE":null,"RCS_SIZE":"LARGE","TIME_SYSTEM":"UTC","TLE_LINE2":"2 53997  53.2157 284.5166 0001668 115.4764 244.6401 15.08842547 17484","MEAN_MOTION_DOT":"0.00001705"},{"EPHEMERIS_TYPE":"0","GP_ID":"223633075","ELEMENT_SET_NO":"999","INCLINATION":"53.2159","RA_OF_ASC_NODE":"293.9554","SEMIMAJOR_AXIS":"6917.845","NORAD_CAT_ID":"53998","MEAN_ANOMALY":"257.3044","FILE":"3759741","EPOCH":"2023-01-24T03:41:49.184736","ARG_OF_PERICENTER":"102.8100","MEAN_ELEMENT_THEORY":"SGP4","PERIOD":"95.437","SITE":"AFWTR","OBJECT_TYPE":"PAYLOAD","MEAN_MOTION_DDOT":"0.0000000000000","CENTER_NAME":"EARTH","APOAPSIS":"540.648","CLASSIFICATION_TYPE":"U","REF_FRAME":"TEME","PERIAPSIS":"538.772","TIME_SYSTEM":"UTC","DECAY_DATE":null,"RCS_SIZE":"LARGE","OBJECT_ID":"2022-125AL","MEAN_MOTION_DOT":"0.00004497","TLE_LINE2":"2 53998  53.2159 293.9554 0001356 102.8100 257.3044 15.08851453 17356","OBJECT_NAME":"STARLINK-5128","MEAN_MOTION":"15.08851453","ECCENTRICITY":"0.00013560","REV_AT_EPOCH":"1735","LAUNCH_DATE":"2022-10-05","COUNTRY_CODE":"US","TLE_LINE1":"1 53998U 22125AL  23024.15404149  .00004497  00000-0  30034-3 0  9992","BSTAR":"0.00030034000000"},{"TIME_SYSTEM":"UTC","DECAY_DATE":null,"RCS_SIZE":"LARGE","OBJECT_ID":"2022-125AM","MEAN_MOTION_DOT":"0.00023746","TLE_LINE2":"2 53999  53.2161 295.8322 0001434 111.5494 248.5651 15.08843785 17292","APOAPSIS":"540.726","CLASSIFICATION_TYPE":"U","REF_FRAME":"TEME","PERIAPSIS":"538.742","TLE_LINE1":"1 53999U 22125AM  23023.77038863  .00023746  00000-0  15049-2 0  9992","BSTAR":"0.00150490000000","OBJECT_NAME":"STARLINK-5079","ECCENTRICITY":"0.00014340","MEAN_MOTION":"15.08843785","REV_AT_EPOCH":"1729","LAUNCH_DATE":"2022-10-05","COUNTRY_CODE":"US","SEMIMAJOR_AXIS":"6917.869","RA_OF_ASC_NODE":"295.8322","NORAD_CAT_ID":"53999","MEAN_ANOMALY":"248.5651","EPHEMERIS_TYPE":"0","GP_ID":"223615946","ELEMENT_SET_NO":"999","INCLINATION":"53.2161","ARG_OF_PERICENTER":"111.5494","PERIOD":"95.437","MEAN_ELEMENT_THEORY":"SGP4","SITE":"AFWTR","OBJECT_TYPE":"PAYLOAD","MEAN_MOTION_DDOT":"0.0000000000000","CENTER_NAME":"EARTH","FILE":"3758964","EPOCH":"2023-01-23T18:29:21.577632"},{"RA_OF_ASC_NODE":"281.2210","SEMIMAJOR_AXIS":"6917.867","NORAD_CAT_ID":"54000","MEAN_ANOMALY":"234.4107","GP_ID":"223639136","EPHEMERIS_TYPE":"0","ELEMENT_SET_NO":"999","INCLINATION":"53.2169","PERIOD":"95.437","MEAN_ELEMENT_THEORY":"SGP4","SITE":"AFWTR","ARG_OF_PERICENTER":"125.7072","MEAN_MOTION_DDOT":"0.0000000000000","CENTER_NAME":"EARTH","OBJECT_TYPE":"PAYLOAD","FILE":"3760042","EPOCH":"2023-01-24T20:28:41.692512","DECAY_DATE":null,"RCS_SIZE":"LARGE","OBJECT_ID":"2022-125AN","TIME_SYSTEM":"UTC","TLE_LINE2":"2 54000  53.2169 281.2210 0002001 125.7072 234.4107 15.08844467 17590","MEAN_MOTION_DOT":"0.00002794","REF_FRAME":"TEME","APOAPSIS":"541.116","CLASSIFICATION_TYPE":"U","PERIAPSIS":"538.347","TLE_LINE1":"1 54000U 22125AN  23024.85326033  .00002794  00000-0  19354-3 0  9999","BSTAR":"0.00019354000000","REV_AT_EPOCH":"1759","LAUNCH_DATE":"2022-10-05","OBJECT_NAME":"STARLINK-5088","MEAN_MOTION":"15.08844467","ECCENTRICITY":"0.00020010","COUNTRY_CODE":"US"},{"OBJECT_ID":"2022-125AP","DECAY_DATE":null,"RCS_SIZE":"LARGE","TIME_SYSTEM":"UTC","TLE_LINE2":"2 54001  53.2158 293.9502 0001307 100.8654 259.2486 15.08855453 17335","MEAN_MOTION_DOT":"-0.00000491","REF_FRAME":"TEME","CLASSIFICATION_TYPE":"U","APOAPSIS":"540.602","PERIAPSIS":"538.794","TLE_LINE1":"1 54001U 22125AP  23024.15307341 -.00000491  00000-0 -12740-4 0  9991","BSTAR":"-0.00001274000000","LAUNCH_DATE":"2022-10-05","REV_AT_EPOCH":"1733","MEAN_MOTION":"15.08855453","ECCENTRICITY":"0.00013070","OBJECT_NAME":"STARLINK-5105","COUNTRY_CODE":"US","RA_OF_ASC_NODE":"293.9502","SEMIMAJOR_AXIS":"6917.833","NORAD_CAT_ID":"54001","MEAN_ANOMALY":"259.2486","ELEMENT_SET_NO":"999","GP_ID":"223624058","EPHEMERIS_TYPE":"0","INCLINATION":"53.2158","SITE":"AFWTR","MEAN_ELEMENT_THEORY":"SGP4","PERIOD":"95.437","ARG_OF_PERICENTER":"100.8654","CENTER_NAME":"EARTH","MEAN_MOTION_DDOT":"0.0000000000000","OBJECT_TYPE":"PAYLOAD","FILE":"3759352","EPOCH":"2023-01-24T03:40:25.542624"},{"MEAN_MOTION_DDOT":"0.0000000000000","CENTER_NAME":"EARTH","OBJECT_TYPE":"PAYLOAD","MEAN_ELEMENT_THEORY":"SGP4","PERIOD":"95.437","SITE":"AFWTR","ARG_OF_PERICENTER":"91.2466","EPOCH":"2023-01-24T03:31:10.026912","FILE":"3759744","MEAN_ANOMALY":"268.8681","NORAD_CAT_ID":"54002","RA_OF_ASC_NODE":"283.9511","SEMIMAJOR_AXIS":"6917.843","INCLINATION":"53.2163","GP_ID":"223633168","EPHEMERIS_TYPE":"0","ELEMENT_SET_NO":"999","BSTAR":"0.00089563000000","TLE_LINE1":"1 54002U 22125AQ  23024.14664383  .00013999  00000-0  89563-3 0  9994","COUNTRY_CODE":"US","REV_AT_EPOCH":"1747","LAUNCH_DATE":"2022-10-05","OBJECT_NAME":"STARLINK-5109","MEAN_MOTION":"15.08852165","ECCENTRICITY":"0.00013540","TLE_LINE2":"2 54002  53.2163 283.9511 0001354  91.2466 268.8681 15.08852165 17472","MEAN_MOTION_DOT":"0.00013999","RCS_SIZE":"LARGE","DECAY_DATE":null,"OBJECT_ID":"2022-125AQ","TIME_SYSTEM":"UTC","PERIAPSIS":"538.772","REF_FRAME":"TEME","APOAPSIS":"540.645","CLASSIFICATION_TYPE":"U"},{"FILE":"3759350","EPOCH":"2023-01-24T03:45:44.197056","ARG_OF_PERICENTER":"104.6494","MEAN_ELEMENT_THEORY":"SGP4","PERIOD":"95.437","SITE":"AFWTR","OBJECT_TYPE":"PAYLOAD","MEAN_MOTION_DDOT":"0.0000000000000","CENTER_NAME":"EARTH","EPHEMERIS_TYPE":"0","GP_ID":"223623816","ELEMENT_SET_NO":"999","INCLINATION":"53.2161","RA_OF_ASC_NODE":"293.9755","SEMIMAJOR_AXIS":"6917.863","NORAD_CAT_ID":"54003","MEAN_ANOMALY":"255.4657","OBJECT_NAME":"STARLINK-5114","MEAN_MOTION":"15.08845628","ECCENTRICITY":"0.00014330","REV_AT_EPOCH":"1733","LAUNCH_DATE":"2022-10-05","COUNTRY_CODE":"US","TLE_LINE1":"1 54003U 22125AR  23024.15676154  .00002865  00000-0  19797-3 0  9997","BSTAR":"0.00019797000000","APOAPSIS":"540.720","CLASSIFICATION_TYPE":"U","REF_FRAME":"TEME","PERIAPSIS":"538.737","TIME_SYSTEM":"UTC","RCS_SIZE":"LARGE","DECAY_DATE":null,"OBJECT_ID":"2022-125AR","MEAN_MOTION_DOT":"0.00002865","TLE_LINE2":"2 54003  53.2161 293.9755 0001433 104.6494 255.4657 15.08845628 17336"},{"RA_OF_ASC_NODE":"293.9048","SEMIMAJOR_AXIS":"6917.814","NORAD_CAT_ID":"54004","MEAN_ANOMALY":"283.3362","EPHEMERIS_TYPE":"0","GP_ID":"223623850","ELEMENT_SET_NO":"999","INCLINATION":"53.2150","PERIOD":"95.436","MEAN_ELEMENT_THEORY":"SGP4","SITE":"AFWTR","ARG_OF_PERICENTER":"76.7796","MEAN_MOTION_DDOT":"0.0000000000000","CENTER_NAME":"EARTH","OBJECT_TYPE":"PAYLOAD","FILE":"3759348","EPOCH":"2023-01-24T03:29:49.926336","DECAY_DATE":null,"RCS_SIZE":"LARGE","OBJECT_ID":"2022-125AS","TIME_SYSTEM":"UTC","TLE_LINE2":"2 54004  53.2150 293.9048 0001491  76.7796 283.3362 15.08861788 17336","MEAN_MOTION_DOT":"0.00018678","REF_FRAME":"TEME","APOAPSIS":"540.710","CLASSIFICATION_TYPE":"U","PERIAPSIS":"538.647","TLE_LINE1":"1 54004U 22125AS  23024.14571674  .00018678  00000-0  11878-2 0  9998","BSTAR":"0.00118780000000","REV_AT_EPOCH":"1733","LAUNCH_DATE":"2022-10-05","OBJECT_NAME":"STARLINK-5129","ECCENTRICITY":"0.00014910","MEAN_MOTION":"15.08861788","COUNTRY_CODE":"US"},{"LAUNCH_DATE":"2022-10-05","REV_AT_EPOCH":"1733","MEAN_MOTION":"15.08869328","ECCENTRICITY":"0.00011680","OBJECT_NAME":"STARLINK-5135","COUNTRY_CODE":"US","TLE_LINE1":"1 54005U 22125AT  23024.14939975  .00029497  00000-0  18622-2 0  9996","BSTAR":"0.00186220000000","REF_FRAME":"TEME","CLASSIFICATION_TYPE":"U","APOAPSIS":"540.464","PERIAPSIS":"538.848","OBJECT_ID":"2022-125AT","DECAY_DATE":null,"RCS_SIZE":"LARGE","TIME_SYSTEM":"UTC","TLE_LINE2":"2 54005  53.2151 293.9298 0001168  95.6288 264.4837 15.08869328 17337","MEAN_MOTION_DOT":"0.00029497","FILE":"3760046","EPOCH":"2023-01-24T03:35:08.138400","SITE":"AFWTR","MEAN_ELEMENT_THEORY":"SGP4","PERIOD":"95.436","ARG_OF_PERICENTER":"95.6288","CENTER_NAME":"EARTH","MEAN_MOTION_DDOT":"0.0000000000000","OBJECT_TYPE":"PAYLOAD","ELEMENT_SET_NO":"999","GP_ID":"223638697","EPHEMERIS_TYPE":"0","INCLINATION":"53.2151","SEMIMAJOR_AXIS":"6917.791","RA_OF_ASC_NODE":"293.9298","NORAD_CAT_ID":"54005","MEAN_ANOMALY":"264.4837"},{"EPOCH":"2023-01-23T11:20:03.775488","FILE":"3758661","OBJECT_TYPE":"PAYLOAD","CENTER_NAME":"EARTH","MEAN_MOTION_DDOT":"0.0000000000000","ARG_OF_PERICENTER":"69.5300","SITE":"AFWTR","PERIOD":"95.438","MEAN_ELEMENT_THEORY":"SGP4","INCLINATION":"53.2157","ELEMENT_SET_NO":"999","EPHEMERIS_TYPE":"0","GP_ID":"223609942","MEAN_ANOMALY":"290.5829","NORAD_CAT_ID":"54006","RA_OF_ASC_NODE":"296.8097","SEMIMAJOR_AXIS":"6917.885","COUNTRY_CODE":"US","MEAN_MOTION":"15.08838652","ECCENTRICITY":"0.00012830","OBJECT_NAME":"STARLINK-5096","LAUNCH_DATE":"2022-10-05","REV_AT_EPOCH":"1723","BSTAR":"0.00103430000000","TLE_LINE1":"1 54006U 22125AU  23023.47226592  .00016211  00000-0  10343-2 0  9998","PERIAPSIS":"538.862","CLASSIFICATION_TYPE":"U","APOAPSIS":"540.637","REF_FRAME":"TEME","MEAN_MOTION_DOT":"0.00016211","TLE_LINE2":"2 54006  53.2157 296.8097 0001283  69.5300 290.5829 15.08838652 17232","TIME_SYSTEM":"UTC","OBJECT_ID":"2022-125AU","RCS_SIZE":"LARGE","DECAY_DATE":null}];
